[{"OBJECT_NAME":"STARLINK-30704","OBJECT_ID":"2023-148M","EPOCH":"2025-07-29T06:51:35.363808","MEAN_MOTION":15.30197312,"ECCENTRICITY":0.0001136,"INCLINATION":53.1603,"RA_OF_ASC_NODE":59.1427,"ARG_OF_PERICENTER":95.9081,"MEAN_ANOMALY":264.205,"EPHEMERIS_TYPE":0,"CLASSIFICATION_TYPE":"U","NORAD_CAT_ID":57946,"ELEMENT_SET_NO":999,"REV_AT_EPOCH":10303,"BSTAR":9.3129e-5,"MEAN_MOTION_DOT":2.4e-5,"MEAN_MOTION_DDOT":0},{"OBJECT_NAME":"STARLINK-30706","OBJECT_ID":"2023-148N","EPOCH":"2025-07-28T14:49:31.954080","MEAN_MOTION":15.30192384,"ECCENTRICITY":0.0001087,"INCLINATION":53.161,"RA_OF_ASC_NODE":345.2287,"ARG_OF_PERICENTER":97.3621,"MEAN_ANOMALY":262.7503,"EPHEMERIS_TYPE":0,"CLASSIFICATION_TYPE":"U","NORAD_CAT_ID":57947,"ELEMENT_SET_NO":999,"REV_AT_EPOCH":10402,"BSTAR":9.0894e-6,"MEAN_MOTION_DOT":-9.0e-7,"MEAN_MOTION_DDOT":0},{"OBJECT_NAME":"STARLINK-30709","OBJECT_ID":"2023-148P","EPOCH":"2025-07-28T15:16:48.679392","MEAN_MOTION":15.53270351,"ECCENTRICITY":0.0001431,"INCLINATION":53.1493,"RA_OF_ASC_NODE":335.17,"ARG_OF_PERICENTER":243.8635,"MEAN_ANOMALY":116.2228,"EPHEMERIS_TYPE":0,"CLASSIFICATION_TYPE":"U","NORAD_CAT_ID":57948,"ELEMENT_SET_NO":999,"REV_AT_EPOCH":10425,"BSTAR":0.00070445,"MEAN_MOTION_DOT":0.00044922,"MEAN_MOTION_DDOT":0},{"OBJECT_NAME":"STARLINK-30707","OBJECT_ID":"2023-148Q","EPOCH":"2025-07-29T12:41:42.868032","MEAN_MOTION":15.30195645,"ECCENTRICITY":0.0001056,"INCLINATION":53.1613,"RA_OF_ASC_NODE":340.9684,"ARG_OF_PERICENTER":95.3541,"MEAN_ANOMALY":264.758,"EPHEMERIS_TYPE":0,"CLASSIFICATION_TYPE":"U","NORAD_CAT_ID":57949,"ELEMENT_SET_NO":999,"REV_AT_EPOCH":10417,"BSTAR":3.1024e-5,"MEAN_MOTION_DOT":5.6e-6,"MEAN_MOTION_DDOT":0},{"OBJECT_NAME":"STARLINK-30701","OBJECT_ID":"2023-148R","EPOCH":"2025-07-29T12:32:36.947904","MEAN_MOTION":15.30179332,"ECCENTRICITY":0.0001125,"INCLINATION":53.1622,"RA_OF_ASC_NODE":340.9124,"ARG_OF_PERICENTER":85.3778,"MEAN_ANOMALY":274.7351,"EPHEMERIS_TYPE":0,"CLASSIFICATION_TYPE":"U","NORAD_CAT_ID":57950,"ELEMENT_SET_NO":999,"REV_AT_EPOCH":10417,"BSTAR":0.00014523,"MEAN_MOTION_DOT":3.942e-5,"MEAN_MOTION_DDOT":0},{"OBJECT_NAME":"STARLINK-30399","OBJECT_ID":"2023-148S","EPOCH":"2025-07-28T16:03:49.542624","MEAN_MOTION":15.30195314,"ECCENTRICITY":0.000105,"INCLINATION":53.1599,"RA_OF_ASC_NODE":344.8272,"ARG_OF_PERICENTER":80.7743,"MEAN_ANOMALY":279.3376,"EPHEMERIS_TYPE":0,"CLASSIFICATION_TYPE":"U","NORAD_CAT_ID":57951,"ELEMENT_SET_NO":999,"REV_AT_EPOCH":10404,"BSTAR":7.1864e-5,"MEAN_MOTION_DOT":1.77e-5,"MEAN_MOTION_DDOT":0},{"OBJECT_NAME":"STARLINK-30713","OBJECT_ID":"2023-148T","EPOCH":"2025-07-29T12:03:44.339328","MEAN_MOTION":15.30176212,"ECCENTRICITY":0.0001138,"INCLINATION":53.1614,"RA_OF_ASC_NODE":340.8083,"ARG_OF_PERICENTER":88.6737,"MEAN_ANOMALY":271.4394,"EPHEMERIS_TYPE":0,"CLASSIFICATION_TYPE":"U","NORAD_CAT_ID":57952,"ELEMENT_SET_NO":999,"REV_AT_EPOCH":10417,"BSTAR":1.5935e-5,"MEAN_MOTION_DOT":1.13e-6,"MEAN_MOTION_DDOT":0},{"OBJECT_NAME":"STARLINK-30700","OBJECT_ID":"2023-148U","EPOCH":"2025-07-29T12:58:27.642144","MEAN_MOTION":15.30190615,"ECCENTRICITY":0.0001219,"INCLINATION":53.1605,"RA_OF_ASC_NODE":330.7146,"ARG_OF_PERICENTER":90.6954,"MEAN_ANOMALY":269.4187,"EPHEMERIS_TYPE":0,"CLASSIFICATION_TYPE":"U","NORAD_CAT_ID":57953,"ELEMENT_SET_NO":999,"REV_AT_EPOCH":10430,"BSTAR":7.7044e-5,"MEAN_MOTION_DOT":1.923e-5,"MEAN_MOTION_DDOT":0},{"OBJECT_NAME":"STARLINK-30703","OBJECT_ID":"2023-148V","EPOCH":"2025-07-29T01:22:09.996096","MEAN_MOTION":15.30201884,"ECCENTRICITY":0.0001062,"INCLINATION":53.1608,"RA_OF_ASC_NODE":332.9291,"ARG_OF_PERICENTER":94.0187,"MEAN_ANOMALY":266.0935,"EPHEMERIS_TYPE":0,"CLASSIFICATION_TYPE":"U","NORAD_CAT_ID":57954,"ELEMENT_SET_NO":999,"REV_AT_EPOCH":10423,"BSTAR":-5.5036e-5,"MEAN_MOTION_DOT":-1.989e-5,"MEAN_MOTION_DDOT":0},{"OBJECT_NAME":"STARLINK-30702","OBJECT_ID":"2023-148W","EPOCH":"2025-07-29T12:26:36.984768","MEAN_MOTION":15.30190358,"ECCENTRICITY":0.0001031,"INCLINATION":53.1608,"RA_OF_ASC_NODE":330.8234,"ARG_OF_PERICENTER":100.294,"MEAN_ANOMALY":259.8177,"EPHEMERIS_TYPE":0,"CLASSIFICATION_TYPE":"U","NORAD_CAT_ID":57955,"ELEMENT_SET_NO":999,"REV_AT_EPOCH":10430,"BSTAR":5.7917e-5,"MEAN_MOTION_DOT":1.356e-5,"MEAN_MOTION_DDOT":0},{"OBJECT_NAME":"STARLINK-30396","OBJECT_ID":"2023-151A","EPOCH":"2025-07-28T23:55:54.361344","MEAN_MOTION":15.02532088,"ECCENTRICITY":9.35e-5,"INCLINATION":43.0032,"RA_OF_ASC_NODE":114.351,"ARG_OF_PERICENTER":270.4472,"MEAN_ANOMALY":89.6263,"EPHEMERIS_TYPE":0,"CLASSIFICATION_TYPE":"U","NORAD_CAT_ID":57964,"ELEMENT_SET_NO":999,"REV_AT_EPOCH":10208,"BSTAR":3.4681e-5,"MEAN_MOTION_DOT":2.65e-6,"MEAN_MOTION_DDOT":0},{"OBJECT_NAME":"STARLINK-30524","OBJECT_ID":"2023-151B","EPOCH":"2025-07-28T10:28:31.436544","MEAN_MOTION":15.02533862,"ECCENTRICITY":9.42e-5,"INCLINATION":43.0047,"RA_OF_ASC_NODE":117.0317,"ARG_OF_PERICENTER":251.7198,"MEAN_ANOMALY":108.3542,"EPHEMERIS_TYPE":0,"CLASSIFICATION_TYPE":"U","NORAD_CAT_ID":57965,"ELEMENT_SET_NO":999,"REV_AT_EPOCH":10200,"BSTAR":1.5959e-5,"MEAN_MOTION_DOT":1.2e-7,"MEAN_MOTION_DDOT":0},{"OBJECT_NAME":"STARLINK-30521","OBJECT_ID":"2023-151C","EPOCH":"2025-07-28T10:39:42.385248","MEAN_MOTION":15.02528861,"ECCENTRICITY":0.0001236,"INCLINATION":43.003,"RA_OF_ASC_NODE":117.0804,"ARG_OF_PERICENTER":265.3451,"MEAN_ANOMALY":94.725,"EPHEMERIS_TYPE":0,"CLASSIFICATION_TYPE":"U","NORAD_CAT_ID":57966,"ELEMENT_SET_NO":999,"REV_AT_EPOCH":10200,"BSTAR":0.00024237,"MEAN_MOTION_DOT":3.071e-5,"MEAN_MOTION_DDOT":0},{"OBJECT_NAME":"STARLINK-30528","OBJECT_ID":"2023-151D","EPOCH":"2025-07-28T23:20:44.607264","MEAN_MOTION":15.02534486,"ECCENTRICITY":7.89e-5,"INCLINATION":43.002,"RA_OF_ASC_NODE":114.1605,"ARG_OF_PERICENTER":251.9116,"MEAN_ANOMALY":108.164,"EPHEMERIS_TYPE":0,"CLASSIFICATION_TYPE":"U","NORAD_CAT_ID":57967,"ELEMENT_SET_NO":999,"REV_AT_EPOCH":10207,"BSTAR":1.1295e-5,"MEAN_MOTION_DOT":-5.1e-7,"MEAN_MOTION_DDOT":0},{"OBJECT_NAME":"STARLINK-30495","OBJECT_ID":"2023-151E","EPOCH":"2025-07-29T00:03:53.554752","MEAN_MOTION":15.02537694,"ECCENTRICITY":8.05e-5,"INCLINATION":43.0047,"RA_OF_ASC_NODE":114.3837,"ARG_OF_PERICENTER":267.8799,"MEAN_ANOMALY":92.1951,"EPHEMERIS_TYPE":0,"CLASSIFICATION_TYPE":"U","NORAD_CAT_ID":57968,"ELEMENT_SET_NO":999,"REV_AT_EPOCH":10202,"BSTAR":3.3951e-5,"MEAN_MOTION_DOT":2.55e-6,"MEAN_MOTION_DDOT":0},{"OBJECT_NAME":"STARLINK-30484","OBJECT_ID":"2023-151F","EPOCH":"2025-07-29T10:26:02.333472","MEAN_MOTION":15.02537975,"ECCENTRICITY":9.63e-5,"INCLINATION":43.0023,"RA_OF_ASC_NODE":111.6109,"ARG_OF_PERICENTER":257.9103,"MEAN_ANOMALY":102.1631,"EPHEMERIS_TYPE":0,"CLASSIFICATION_TYPE":"U","NORAD_CAT_ID":57969,"ELEMENT_SET_NO":999,"REV_AT_EPOCH":10204,"BSTAR":3.4088e-5,"MEAN_MOTION_DOT":2.57e-6,"MEAN_MOTION_DDOT":0},{"OBJECT_NAME":"STARLINK-30494","OBJECT_ID":"2023-151G","EPOCH":"2025-07-29T00:00:02.000160","MEAN_MOTION":15.31007532,"ECCENTRICITY":0.0006007,"INCLINATION":43.0006,"RA_OF_ASC_NODE":67.7594,"ARG_OF_PERICENTER":269.2902,"MEAN_ANOMALY":3.4441,"EPHEMERIS_TYPE":0,"CLASSIFICATION_TYPE":"U","NORAD_CAT_ID":57970,"ELEMENT_SET_NO":999,"REV_AT_EPOCH":10256,"BSTAR":0.0036098,"MEAN_MOTION_DOT":0.00111851,"MEAN_MOTION_DDOT":0}]
