STARLINK-30704          
1 57946U 23148M   25210.28582597  .00002400  00000+0  93129-4 0  9998
2 57946  53.1603  59.1427 0001136  95.9081 264.2050 15.30197312103030
STARLINK-30706          
1 57947U 23148N   25209.61773095 -.00000090  00000+0  90894-5 0  9990
2 57947  53.1610 345.2287 0001087  97.3621 262.7503 15.30192384104023
STARLINK-30709          
1 57948U 23148P   25209.63667453  .00044922  00000+0  70445-3 0  9992
2 57948  53.1493 335.1700 0001431 243.8635 116.2228 15.53270351104255
STARLINK-30707          
1 57949U 23148Q   25210.52896838  .00000560  00000+0  31024-4 0  9995
2 57949  53.1613 340.9684 0001056  95.3541 264.7580 15.30195645104172
STARLINK-30701          
1 57950U 23148R   25210.52264986  .00003942  00000+0  14523-3 0  9991
2 57950  53.1622 340.9124 0001125  85.3778 274.7351 15.30179332104173
STARLINK-30399          
1 57951U 23148S   25209.66932341  .00001770  00000+0  71864-4 0  9991
2 57951  53.1599 344.8272 0001050  80.7743 279.3376 15.30195314104044
STARLINK-30713          
1 57952U 23148T   25210.50259652  .00000113  00000+0  15935-4 0  9991
2 57952  53.1614 340.8083 0001138  88.6737 271.4394 15.30176212104179
STARLINK-30700          
1 57953U 23148U   25210.54059771  .00001923  00000+0  77044-4 0  9995
2 57953  53.1605 330.7146 0001219  90.6954 269.4187 15.30190615104307
STARLINK-30703          
1 57954U 23148V   25210.05706014 -.00001989  00000+0 -55036-4 0  9992
2 57954  53.1608 332.9291 0001062  94.0187 266.0935 15.30201884104235
STARLINK-30702          
1 57955U 23148W   25210.51848362  .00001356  00000+0  57917-4 0  9993
2 57955  53.1608 330.8234 0001031 100.2940 259.8177 15.30190358104302
STARLINK-30396          
1 57964U 23151A   25209.99715696  .00000265  00000+0  34681-4 0  9991
2 57964  43.0032 114.3510 0000935 270.4472  89.6263 15.02532088102082
STARLINK-30524          
1 57965U 23151B   25209.43647496  .00000012  00000+0  15959-4 0  9990
2 57965  43.0047 117.0317 0000942 251.7198 108.3542 15.02533862102001
STARLINK-30521          
1 57966U 23151C   25209.44424057  .00003071  00000+0  24237-3 0  9994
2 57966  43.0030 117.0804 0001236 265.3451  94.7250 15.02528861102002
STARLINK-30528          
1 57967U 23151D   25209.97273851 -.00000051  00000+0  11295-4 0  9994
2 57967  43.0020 114.1605 0000789 251.9116 108.1640 15.02534486102070
STARLINK-30495          
1 57968U 23151E   25210.00270318  .00000255  00000+0  33951-4 0  9994
2 57968  43.0047 114.3837 0000805 267.8799  92.1951 15.02537694102027
STARLINK-30484          
1 57969U 23151F   25210.43474923  .00000257  00000+0  34088-4 0  9994
2 57969  43.0023 111.6109 0000963 257.9103 102.1631 15.02537975102049
STARLINK-30494          
1 57970U 23151G   25210.00002315  .00111851  00000+0  36098-2 0  9995
2 57970  43.0006  67.7594 0006007 269.2902   3.4441 15.31007532102561
